CCSDS_OMM_VERS = 2.0
CREATION_DATE  = 
ORIGINATOR     = 

OBJECT_NAME    = ARIANE 40 R/B
OBJECT_ID      = 1990-005H
CENTER_NAME    = EARTH
REF_FRAME      = TEME
TIME_SYSTEM    = UTC
MEAN_ELEMENT_THEORY = SGP/SGP4

EPOCH          = 2025-11-23T03:23:55.159296
MEAN_MOTION    = 14.39776797
ECCENTRICITY   = .0010623
INCLINATION    = 98.3269
RA_OF_ASC_NODE = 25.8711
ARG_OF_PERICENTER = 159.6620
MEAN_ANOMALY   = 200.4993

EPHEMERIS_TYPE = 0
CLASSIFICATION_TYPE = U
NORAD_CAT_ID   = 20443
ELEMENT_SET_NO = 999
REV_AT_EPOCH   = 87747
BSTAR          = .12252E-3
MEAN_MOTION_DOT = .342E-5
MEAN_MOTION_DDOT = 0

CCSDS_OMM_VERS = 2.0
CREATION_DATE  = 
ORIGINATOR     = 

OBJECT_NAME    = DELTA 2 R/B(1)
OBJECT_ID      = 1990-008B
CENTER_NAME    = EARTH
REF_FRAME      = TEME
TIME_SYSTEM    = UTC
MEAN_ELEMENT_THEORY = SGP/SGP4

EPOCH          = 2025-11-22T18:33:18.785376
MEAN_MOTION    = 15.43336294
ECCENTRICITY   = .0115273
INCLINATION    = 35.6044
RA_OF_ASC_NODE = 149.2721
ARG_OF_PERICENTER = 355.8331
MEAN_ANOMALY   = 4.1435

EPHEMERIS_TYPE = 0
CLASSIFICATION_TYPE = U
NORAD_CAT_ID   = 20453
ELEMENT_SET_NO = 999
REV_AT_EPOCH   = 90954
BSTAR          = .53738E-3
MEAN_MOTION_DOT = .31741E-3
MEAN_MOTION_DDOT = 0

CCSDS_OMM_VERS = 2.0
CREATION_DATE  = 
ORIGINATOR     = 

OBJECT_NAME    = COSMOS 2058
OBJECT_ID      = 1990-010A
CENTER_NAME    = EARTH
REF_FRAME      = TEME
TIME_SYSTEM    = UTC
MEAN_ELEMENT_THEORY = SGP/SGP4

EPOCH          = 2025-11-23T00:21:15.823872
MEAN_MOTION    = 15.10226285
ECCENTRICITY   = .0009792
INCLINATION    = 82.4628
RA_OF_ASC_NODE = 152.4362
ARG_OF_PERICENTER = 351.7156
MEAN_ANOMALY   = 8.3910

EPHEMERIS_TYPE = 0
CLASSIFICATION_TYPE = U
NORAD_CAT_ID   = 20465
ELEMENT_SET_NO = 999
REV_AT_EPOCH   = 92613
BSTAR          = .21824E-3
MEAN_MOTION_DOT = .3598E-4
MEAN_MOTION_DDOT = 0

CCSDS_OMM_VERS = 2.0
CREATION_DATE  = 
ORIGINATOR     = 

OBJECT_NAME    = SL-14 R/B
OBJECT_ID      = 1990-010B
CENTER_NAME    = EARTH
REF_FRAME      = TEME
TIME_SYSTEM    = UTC
MEAN_ELEMENT_THEORY = SGP/SGP4

EPOCH          = 2025-11-23T04:25:35.704128
MEAN_MOTION    = 14.83445274
ECCENTRICITY   = .0018367
INCLINATION    = 82.5034
RA_OF_ASC_NODE = 7.4130
ARG_OF_PERICENTER = 292.5858
MEAN_ANOMALY   = 67.3414

EPHEMERIS_TYPE = 0
CLASSIFICATION_TYPE = U
NORAD_CAT_ID   = 20466
ELEMENT_SET_NO = 999
REV_AT_EPOCH   = 91269
BSTAR          = .54864E-4
MEAN_MOTION_DOT = .475E-5
MEAN_MOTION_DDOT = 0

CCSDS_OMM_VERS = 2.0
CREATION_DATE  = 
ORIGINATOR     = 

OBJECT_NAME    = SL-14 R/B
OBJECT_ID      = 1990-018B
CENTER_NAME    = EARTH
REF_FRAME      = TEME
TIME_SYSTEM    = UTC
MEAN_ELEMENT_THEORY = SGP/SGP4

EPOCH          = 2025-11-23T10:29:57.764832
MEAN_MOTION    = 14.82017963
ECCENTRICITY   = .0017983
INCLINATION    = 82.5198
RA_OF_ASC_NODE = 322.4082
ARG_OF_PERICENTER = 82.4132
MEAN_ANOMALY   = 277.9124

EPHEMERIS_TYPE = 0
CLASSIFICATION_TYPE = U
NORAD_CAT_ID   = 20511
ELEMENT_SET_NO = 999
REV_AT_EPOCH   = 90684
BSTAR          = .58537E-4
MEAN_MOTION_DOT = .489E-5
MEAN_MOTION_DDOT = 0

CCSDS_OMM_VERS = 2.0
CREATION_DATE  = 
ORIGINATOR     = 

OBJECT_NAME    = HST
OBJECT_ID      = 1990-037B
CENTER_NAME    = EARTH
REF_FRAME      = TEME
TIME_SYSTEM    = UTC
MEAN_ELEMENT_THEORY = SGP/SGP4

EPOCH          = 2025-11-23T06:16:26.446080
MEAN_MOTION    = 15.27665927
ECCENTRICITY   = .0001848
INCLINATION    = 28.4698
RA_OF_ASC_NODE = 45.0251
ARG_OF_PERICENTER = 35.9855
MEAN_ANOMALY   = 324.0864

EPHEMERIS_TYPE = 0
CLASSIFICATION_TYPE = U
NORAD_CAT_ID   = 20580
ELEMENT_SET_NO = 999
REV_AT_EPOCH   = 75701
BSTAR          = .28069E-3
MEAN_MOTION_DOT = .8036E-4
MEAN_MOTION_DDOT = 0

CCSDS_OMM_VERS = 2.0
CREATION_DATE  = 
ORIGINATOR     = 

OBJECT_NAME    = SL-16 R/B
OBJECT_ID      = 1990-046B
CENTER_NAME    = EARTH
REF_FRAME      = TEME
TIME_SYSTEM    = UTC
MEAN_ELEMENT_THEORY = SGP/SGP4

EPOCH          = 2025-11-23T00:32:38.959296
MEAN_MOTION    = 14.14990519
ECCENTRICITY   = .0012243
INCLINATION    = 70.9959
RA_OF_ASC_NODE = 161.9289
ARG_OF_PERICENTER = 109.9431
MEAN_ANOMALY   = 250.3012

EPHEMERIS_TYPE = 0
CLASSIFICATION_TYPE = U
NORAD_CAT_ID   = 20625
ELEMENT_SET_NO = 999
REV_AT_EPOCH   = 83330
BSTAR          = .86578E-4
MEAN_MOTION_DOT = .12E-5
MEAN_MOTION_DDOT = 0

CCSDS_OMM_VERS = 2.0
CREATION_DATE  = 
ORIGINATOR     = 

OBJECT_NAME    = COSMOS 2084
OBJECT_ID      = 1990-055A
CENTER_NAME    = EARTH
REF_FRAME      = TEME
TIME_SYSTEM    = UTC
MEAN_ELEMENT_THEORY = SGP/SGP4

EPOCH          = 2025-11-23T10:21:17.133984
MEAN_MOTION    = 15.04846495
ECCENTRICITY   = .0034778
INCLINATION    = 62.7910
RA_OF_ASC_NODE = 337.7749
ARG_OF_PERICENTER = 172.3429
MEAN_ANOMALY   = 187.8210

EPHEMERIS_TYPE = 0
CLASSIFICATION_TYPE = U
NORAD_CAT_ID   = 20663
ELEMENT_SET_NO = 999
REV_AT_EPOCH   = 92032
BSTAR          = .20588E-3
MEAN_MOTION_DOT = .2756E-4
MEAN_MOTION_DDOT = 0

CCSDS_OMM_VERS = 2.0
CREATION_DATE  = 
ORIGINATOR     = 

OBJECT_NAME    = SL-6 R/B(2)
OBJECT_ID      = 1990-055D
CENTER_NAME    = EARTH
REF_FRAME      = TEME
TIME_SYSTEM    = UTC
MEAN_ELEMENT_THEORY = SGP/SGP4

EPOCH          = 2025-11-23T04:58:18.232608
MEAN_MOTION    = 15.02944026
ECCENTRICITY   = .0011165
INCLINATION    = 62.7835
RA_OF_ASC_NODE = 255.7759
ARG_OF_PERICENTER = 293.0744
MEAN_ANOMALY   = 66.9177

EPHEMERIS_TYPE = 0
CLASSIFICATION_TYPE = U
NORAD_CAT_ID   = 20666
ELEMENT_SET_NO = 999
REV_AT_EPOCH   = 92218
BSTAR          = .22206E-3
MEAN_MOTION_DOT = .2805E-4
MEAN_MOTION_DDOT = 0

CCSDS_OMM_VERS = 2.0
CREATION_DATE  = 
ORIGINATOR     = 

OBJECT_NAME    = SL-8 R/B
OBJECT_ID      = 1990-078B
CENTER_NAME    = EARTH
REF_FRAME      = TEME
TIME_SYSTEM    = UTC
MEAN_ELEMENT_THEORY = SGP/SGP4

EPOCH          = 2025-11-23T11:09:32.090400
MEAN_MOTION    = 14.84776373
ECCENTRICITY   = .0378193
INCLINATION    = 82.9049
RA_OF_ASC_NODE = 346.5470
ARG_OF_PERICENTER = 10.5523
MEAN_ANOMALY   = 350.3346

EPHEMERIS_TYPE = 0
CLASSIFICATION_TYPE = U
NORAD_CAT_ID   = 20775
ELEMENT_SET_NO = 999
REV_AT_EPOCH   = 79351
BSTAR          = .74308E-3
MEAN_MOTION_DOT = .24027E-3
MEAN_MOTION_DDOT = 0

CCSDS_OMM_VERS = 2.0
CREATION_DATE  = 
ORIGINATOR     = 

OBJECT_NAME    = SL-8 R/B
OBJECT_ID      = 1991-006B
CENTER_NAME    = EARTH
REF_FRAME      = TEME
TIME_SYSTEM    = UTC
MEAN_ELEMENT_THEORY = SGP/SGP4

EPOCH          = 2025-11-23T07:05:24.116064
MEAN_MOTION    = 13.77486576
ECCENTRICITY   = .0022059
INCLINATION    = 82.9427
RA_OF_ASC_NODE = 249.1750
ARG_OF_PERICENTER = 336.9307
MEAN_ANOMALY   = 140.2178

EPHEMERIS_TYPE = 0
CLASSIFICATION_TYPE = U
NORAD_CAT_ID   = 21088
ELEMENT_SET_NO = 999
REV_AT_EPOCH   = 74942
BSTAR          = .97489E-4
MEAN_MOTION_DOT = .112E-5
MEAN_MOTION_DDOT = 0

CCSDS_OMM_VERS = 2.0
CREATION_DATE  = 
ORIGINATOR     = 

OBJECT_NAME    = OKEAN-3
OBJECT_ID      = 1991-039A
CENTER_NAME    = EARTH
REF_FRAME      = TEME
TIME_SYSTEM    = UTC
MEAN_ELEMENT_THEORY = SGP/SGP4

EPOCH          = 2025-11-23T07:43:29.663040
MEAN_MOTION    = 15.03926471
ECCENTRICITY   = .0014047
INCLINATION    = 82.5170
RA_OF_ASC_NODE = 79.8373
ARG_OF_PERICENTER = 337.9408
MEAN_ANOMALY   = 22.1212

EPHEMERIS_TYPE = 0
CLASSIFICATION_TYPE = U
NORAD_CAT_ID   = 21397
ELEMENT_SET_NO = 999
REV_AT_EPOCH   = 84904
BSTAR          = .30361E-3
MEAN_MOTION_DOT = .422E-4
MEAN_MOTION_DDOT = 0

