ARIANE 40 R/B           
1 20443U 90005H   25327.14161064  .00000342  00000+0  12252-3 0  9992
2 20443  98.3269  25.8711 0010623 159.6620 200.4993 14.39776797877477
DELTA 2 R/B(1)          
1 20453U 90008B   25326.77313409  .00031741  00000+0  53738-3 0  9997
2 20453  35.6044 149.2721 0115273 355.8331   4.1435 15.43336294909545
COSMOS 2058             
1 20465U 90010A   25327.01476648  .00003598  00000+0  21824-3 0  9996
2 20465  82.4628 152.4362 0009792 351.7156   8.3910 15.10226285926131
SL-14 R/B               
1 20466U 90010B   25327.18444102  .00000475  00000+0  54864-4 0  9997
2 20466  82.5034   7.4130 0018367 292.5858  67.3414 14.83445274912695
SL-14 R/B               
1 20511U 90018B   25327.43747413  .00000489  00000+0  58537-4 0  9991
2 20511  82.5198 322.4082 0017983  82.4132 277.9124 14.82017963906843
HST                     
1 20580U 90037B   25327.26141720  .00008036  00000+0  28069-3 0  9990
2 20580  28.4698  45.0251 0001848  35.9855 324.0864 15.27665927757014
SL-16 R/B               
1 20625U 90046B   25327.02267314  .00000120  00000+0  86578-4 0  9998
2 20625  70.9959 161.9289 0012243 109.9431 250.3012 14.14990519833304
COSMOS 2084             
1 20663U 90055A   25327.43144831  .00002756  00000+0  20588-3 0  9998
2 20663  62.7910 337.7749 0034778 172.3429 187.8210 15.04846495920320
SL-6 R/B(2)             
1 20666U 90055D   25327.20715547  .00002805  00000+0  22206-3 0  9998
2 20666  62.7835 255.7759 0011165 293.0744  66.9177 15.02944026922187
SL-8 R/B                
1 20775U 90078B   25327.46495475  .00024027  00000+0  74308-3 0  9997
2 20775  82.9049 346.5470 0378193  10.5523 350.3346 14.84776373793510
SL-8 R/B                
1 21088U 91006B   25327.29541801  .00000112  00000+0  97489-4 0  9998
2 21088  82.9427 249.1750 0022059 336.9307 140.2178 13.77486576749423
OKEAN-3                 
1 21397U 91039A   25327.32187110  .00004220  00000+0  30361-3 0  9999
2 21397  82.5170  79.8373 0014047 337.9408  22.1212 15.03926471849047
